[{"OBJECT_NAME":"STARLINK-30320","OBJECT_ID":"2023-124R","EPOCH":"2023-11-23T17:11:15.481824","MEAN_MOTION":15.18676509,"ECCENTRICITY":0.0001954,"INCLINATION":53.0519,"RA_OF_ASC_NODE":127.4423,"ARG_OF_PERICENTER":75.4975,"MEAN_ANOMALY":284.6236,"EPHEMERIS_TYPE":0,"CLASSIFICATION_TYPE":"U","NORAD_CAT_ID":57678,"ELEMENT_SET_NO":999,"REV_AT_EPOCH":1554,"BSTAR":-0.00091896,"MEAN_MOTION_DOT":-0.00019555,"MEAN_MOTION_DDOT":0},{"OBJECT_NAME":"STARLINK-30321","OBJECT_ID":"2023-124S","EPOCH":"2023-11-23T20:05:01.072608","MEAN_MOTION":15.18720315,"ECCENTRICITY":0.0001215,"INCLINATION":53.0517,"RA_OF_ASC_NODE":126.7707,"ARG_OF_PERICENTER":86.129,"MEAN_ANOMALY":273.9843,"EPHEMERIS_TYPE":0,"CLASSIFICATION_TYPE":"U","NORAD_CAT_ID":57679,"ELEMENT_SET_NO":999,"REV_AT_EPOCH":1556,"BSTAR":0.00016468,"MEAN_MOTION_DOT":3.144e-5,"MEAN_MOTION_DDOT":0},{"OBJECT_NAME":"STARLINK-30283","OBJECT_ID":"2023-124T","EPOCH":"2023-11-23T17:14:25.014912","MEAN_MOTION":15.18688036,"ECCENTRICITY":8.2e-5,"INCLINATION":53.0529,"RA_OF_ASC_NODE":126.7505,"ARG_OF_PERICENTER":99.9331,"MEAN_ANOMALY":260.1756,"EPHEMERIS_TYPE":0,"CLASSIFICATION_TYPE":"U","NORAD_CAT_ID":57680,"ELEMENT_SET_NO":999,"REV_AT_EPOCH":1555,"BSTAR":-4.1531e-5,"MEAN_MOTION_DOT":-1.19e-5,"MEAN_MOTION_DDOT":0},{"OBJECT_NAME":"STARLINK-30273","OBJECT_ID":"2023-124U","EPOCH":"2023-11-23T17:08:07.740672","MEAN_MOTION":15.18709667,"ECCENTRICITY":0.0001397,"INCLINATION":53.0509,"RA_OF_ASC_NODE":127.426,"ARG_OF_PERICENTER":90.9067,"MEAN_ANOMALY":269.2088,"EPHEMERIS_TYPE":0,"CLASSIFICATION_TYPE":"U","NORAD_CAT_ID":57681,"ELEMENT_SET_NO":999,"REV_AT_EPOCH":1554,"BSTAR":0.00035897,"MEAN_MOTION_DOT":7.231e-5,"MEAN_MOTION_DDOT":0},{"OBJECT_NAME":"STARLINK-30297","OBJECT_ID":"2023-124V","EPOCH":"2023-11-23T21:20:49.887456","MEAN_MOTION":15.18703084,"ECCENTRICITY":0.0001296,"INCLINATION":53.0549,"RA_OF_ASC_NODE":126.3889,"ARG_OF_PERICENTER":144.0367,"MEAN_ANOMALY":216.0715,"EPHEMERIS_TYPE":0,"CLASSIFICATION_TYPE":"U","NORAD_CAT_ID":57682,"ELEMENT_SET_NO":999,"REV_AT_EPOCH":1557,"BSTAR":6.6857e-5,"MEAN_MOTION_DOT":1.086e-5,"MEAN_MOTION_DDOT":0},{"OBJECT_NAME":"STARLINK-30295","OBJECT_ID":"2023-124W","EPOCH":"2023-11-23T16:14:28.590720","MEAN_MOTION":15.18708711,"ECCENTRICITY":0.0001178,"INCLINATION":53.0566,"RA_OF_ASC_NODE":124.3336,"ARG_OF_PERICENTER":76.0538,"MEAN_ANOMALY":284.0588,"EPHEMERIS_TYPE":0,"CLASSIFICATION_TYPE":"U","NORAD_CAT_ID":57683,"ELEMENT_SET_NO":999,"REV_AT_EPOCH":1558,"BSTAR":-6.6045e-5,"MEAN_MOTION_DOT":-1.705e-5,"MEAN_MOTION_DDOT":0},{"OBJECT_NAME":"PROGRESS-MS 24","OBJECT_ID":"2023-125A","EPOCH":"2023-11-23T20:18:35.567136","MEAN_MOTION":15.49617534,"ECCENTRICITY":7.88e-5,"INCLINATION":51.643,"RA_OF_ASC_NODE":257.745,"ARG_OF_PERICENTER":342.6291,"MEAN_ANOMALY":72.9393,"EPHEMERIS_TYPE":0,"CLASSIFICATION_TYPE":"U","NORAD_CAT_ID":57691,"ELEMENT_SET_NO":999,"REV_AT_EPOCH":42655,"BSTAR":0.00044696,"MEAN_MOTION_DOT":0.0002479,"MEAN_MOTION_DDOT":0},{"OBJECT_NAME":"CAPELLA-11 (ACADIA)","OBJECT_ID":"2023-126A","EPOCH":"2023-11-23T18:51:00.389088","MEAN_MOTION":14.76500256,"ECCENTRICITY":0.0006486,"INCLINATION":53.0115,"RA_OF_ASC_NODE":256.7978,"ARG_OF_PERICENTER":175.4613,"MEAN_ANOMALY":184.6423,"EPHEMERIS_TYPE":0,"CLASSIFICATION_TYPE":"U","NORAD_CAT_ID":57693,"ELEMENT_SET_NO":999,"REV_AT_EPOCH":1355,"BSTAR":0.0012646,"MEAN_MOTION_DOT":8.684e-5,"MEAN_MOTION_DDOT":0},{"OBJECT_NAME":"JILIN-1 KUANFU 02A","OBJECT_ID":"2023-127A","EPOCH":"2023-11-24T04:05:16.751328","MEAN_MOTION":15.10884471,"ECCENTRICITY":0.0011971,"INCLINATION":97.5909,"RA_OF_ASC_NODE":52.846,"ARG_OF_PERICENTER":341.2018,"MEAN_ANOMALY":18.8768,"EPHEMERIS_TYPE":0,"CLASSIFICATION_TYPE":"U","NORAD_CAT_ID":57696,"ELEMENT_SET_NO":999,"REV_AT_EPOCH":1373,"BSTAR":0.00054735,"MEAN_MOTION_DOT":9.067e-5,"MEAN_MOTION_DDOT":0},{"OBJECT_NAME":"CREW DRAGON 7","OBJECT_ID":"2023-128A","EPOCH":"2023-11-23T20:18:35.567136","MEAN_MOTION":15.49617534,"ECCENTRICITY":7.88e-5,"INCLINATION":51.643,"RA_OF_ASC_NODE":257.745,"ARG_OF_PERICENTER":342.6291,"MEAN_ANOMALY":72.9393,"EPHEMERIS_TYPE":0,"CLASSIFICATION_TYPE":"U","NORAD_CAT_ID":57697,"ELEMENT_SET_NO":999,"REV_AT_EPOCH":42655,"BSTAR":0.00044696,"MEAN_MOTION_DOT":0.0002479,"MEAN_MOTION_DDOT":0},{"OBJECT_NAME":"STARLINK-30288","OBJECT_ID":"2023-129A","EPOCH":"2023-11-24T02:35:44.789856","MEAN_MOTION":15.02512881,"ECCENTRICITY":9.74e-5,"INCLINATION":43.0007,"RA_OF_ASC_NODE":345.8001,"ARG_OF_PERICENTER":258.0974,"MEAN_ANOMALY":101.9759,"EPHEMERIS_TYPE":0,"CLASSIFICATION_TYPE":"U","NORAD_CAT_ID":57698,"ELEMENT_SET_NO":999,"REV_AT_EPOCH":1481,"BSTAR":-0.00036342,"MEAN_MOTION_DOT":-5.106e-5,"MEAN_MOTION_DDOT":0},{"OBJECT_NAME":"STARLINK-30347","OBJECT_ID":"2023-129B","EPOCH":"2023-11-24T03:05:19.257504","MEAN_MOTION":15.15923696,"ECCENTRICITY":0.0001264,"INCLINATION":43.0026,"RA_OF_ASC_NODE":336.5588,"ARG_OF_PERICENTER":253.7835,"MEAN_ANOMALY":106.2873,"EPHEMERIS_TYPE":0,"CLASSIFICATION_TYPE":"U","NORAD_CAT_ID":57699,"ELEMENT_SET_NO":999,"REV_AT_EPOCH":1492,"BSTAR":0.0025068,"MEAN_MOTION_DOT":0.00049026,"MEAN_MOTION_DDOT":0},{"OBJECT_NAME":"STARLINK-30332","OBJECT_ID":"2023-129C","EPOCH":"2023-11-24T02:30:57.092544","MEAN_MOTION":15.02507901,"ECCENTRICITY":9.55e-5,"INCLINATION":43.001,"RA_OF_ASC_NODE":345.7741,"ARG_OF_PERICENTER":261.1653,"MEAN_ANOMALY":98.9081,"EPHEMERIS_TYPE":0,"CLASSIFICATION_TYPE":"U","NORAD_CAT_ID":57700,"ELEMENT_SET_NO":999,"REV_AT_EPOCH":1467,"BSTAR":-0.00061259,"MEAN_MOTION_DOT":-8.462e-5,"MEAN_MOTION_DDOT":0},{"OBJECT_NAME":"STARLINK-30345","OBJECT_ID":"2023-129D","EPOCH":"2023-11-24T02:11:56.346432","MEAN_MOTION":15.02530432,"ECCENTRICITY":7.56e-5,"INCLINATION":43.0008,"RA_OF_ASC_NODE":346.5418,"ARG_OF_PERICENTER":249.3862,"MEAN_ANOMALY":110.6899,"EPHEMERIS_TYPE":0,"CLASSIFICATION_TYPE":"U","NORAD_CAT_ID":57701,"ELEMENT_SET_NO":999,"REV_AT_EPOCH":1444,"BSTAR":-0.00039666,"MEAN_MOTION_DOT":-5.557e-5,"MEAN_MOTION_DDOT":0},{"OBJECT_NAME":"STARLINK-30333","OBJECT_ID":"2023-129E","EPOCH":"2023-11-24T02:02:21.042528","MEAN_MOTION":15.02507517,"ECCENTRICITY":4.72e-5,"INCLINATION":43.001,"RA_OF_ASC_NODE":346.4914,"ARG_OF_PERICENTER":227.5342,"MEAN_ANOMALY":132.546,"EPHEMERIS_TYPE":0,"CLASSIFICATION_TYPE":"U","NORAD_CAT_ID":57702,"ELEMENT_SET_NO":999,"REV_AT_EPOCH":1480,"BSTAR":-0.00024352,"MEAN_MOTION_DOT":-3.489e-5,"MEAN_MOTION_DDOT":0},{"OBJECT_NAME":"STARLINK-30336","OBJECT_ID":"2023-129F","EPOCH":"2023-11-24T02:07:08.933376","MEAN_MOTION":15.02517305,"ECCENTRICITY":9.04e-5,"INCLINATION":43.0007,"RA_OF_ASC_NODE":346.5133,"ARG_OF_PERICENTER":260.7647,"MEAN_ANOMALY":99.3093,"EPHEMERIS_TYPE":0,"CLASSIFICATION_TYPE":"U","NORAD_CAT_ID":57703,"ELEMENT_SET_NO":999,"REV_AT_EPOCH":1450,"BSTAR":-0.00028505,"MEAN_MOTION_DOT":-4.05e-5,"MEAN_MOTION_DDOT":0}]
