STARLINK-30320          
1 57678U 23124R   23327.71615141 -.00019555  00000+0 -91896-3 0  9990
2 57678  53.0519 127.4423 0001954  75.4975 284.6236 15.18676509 15541
STARLINK-30321          
1 57679U 23124S   23327.83681797  .00003144  00000+0  16468-3 0  9991
2 57679  53.0517 126.7707 0001215  86.1290 273.9843 15.18720315 15568
STARLINK-30283          
1 57680U 23124T   23327.71834508 -.00001190  00000+0 -41531-4 0  9991
2 57680  53.0529 126.7505 0000820  99.9331 260.1756 15.18688036 15551
STARLINK-30273          
1 57681U 23124U   23327.71397848  .00007231  00000+0  35897-3 0  9990
2 57681  53.0509 127.4260 0001397  90.9067 269.2088 15.18709667 15544
STARLINK-30297          
1 57682U 23124V   23327.88946629  .00001086  00000+0  66857-4 0  9999
2 57682  53.0549 126.3889 0001296 144.0367 216.0715 15.18703084 15573
STARLINK-30295          
1 57683U 23124W   23327.67671980 -.00001705  00000+0 -66045-4 0  9991
2 57683  53.0566 124.3336 0001178  76.0538 284.0588 15.18708711 15587
PROGRESS-MS 24          
1 57691U 23125A   23327.84624499  .00024790  00000+0  44696-3 0  9997
2 57691  51.6430 257.7450 0000788 342.6291  72.9393 15.49617534426559
CAPELLA-11 (ACADIA)     
1 57693U 23126A   23327.78542117  .00008684  00000+0  12646-2 0  9992
2 57693  53.0115 256.7978 0006486 175.4613 184.6423 14.76500256 13550
JILIN-1 KUANFU 02A      
1 57696U 23127A   23328.17033277  .00009067  00000+0  54735-3 0  9994
2 57696  97.5909  52.8460 0011971 341.2018  18.8768 15.10884471 13738
CREW DRAGON 7           
1 57697U 23128A   23327.84624499  .00024790  00000+0  44696-3 0  9996
2 57697  51.6430 257.7450 0000788 342.6291  72.9393 15.49617534426555
STARLINK-30288          
1 57698U 23129A   23328.10815729 -.00005106  00000+0 -36342-3 0  9997
2 57698  43.0007 345.8001 0000974 258.0974 101.9759 15.02512881 14816
STARLINK-30347          
1 57699U 23129B   23328.12869511  .00049026  00000+0  25068-2 0  9997
2 57699  43.0026 336.5588 0001264 253.7835 106.2873 15.15923696 14927
STARLINK-30332          
1 57700U 23129C   23328.10482746 -.00008462  00000+0 -61259-3 0  9993
2 57700  43.0010 345.7741 0000955 261.1653  98.9081 15.02507901 14676
STARLINK-30345          
1 57701U 23129D   23328.09162438 -.00005557  00000+0 -39666-3 0  9994
2 57701  43.0008 346.5418 0000756 249.3862 110.6899 15.02530432 14442
STARLINK-30333          
1 57702U 23129E   23328.08496577 -.00003489  00000+0 -24352-3 0  9996
2 57702  43.0010 346.4914 0000472 227.5342 132.5460 15.02507517 14807
STARLINK-30336          
1 57703U 23129F   23328.08829784 -.00004050  00000+0 -28505-3 0  9996
2 57703  43.0007 346.5133 0000904 260.7647  99.3093 15.02517305 14500
